{"version": 0.6, "generator": "Overpass API 0.7.62.5 1bd436f1", "osm3s": {"timestamp_osm_base": "2025-04-25T01:43:31Z", "copyright": "The data included in this document is from www.openstreetmap.org. The data is made available under ODbL."}, "elements": [{"type": "node", "id": 559697927, "lat": 39.9830151, "lon": -105.2493688, "tags": {"amenity": "cafe", "name": "South Side Cafe"}}, {"type": "node", "id": 564844204, "lat": 39.9999497, "lon": -105.2630757, "tags": {"addr:city": "Boulder", "addr:housenumber": "2400", "addr:postcode": "80305", "addr:state": "CO", "addr:street": "Baseline Road", "amenity": "cafe", "branch": "Baseline Road & Broadway - Bould", "brand": "Starbucks", "brand:wikidata": "Q37158", "cuisine": "coffee_shop", "internet_access": "wlan", "internet_access:fee": "no", "name": "Starbucks", "official_name": "Starbucks Coffee", "opening_hours": "Mo-Su 05:30-21:00", "outdoor_seating": "yes", "phone": "+1 303-494-5109", "takeaway": "yes", "website": "https://www.starbucks.com/store-locator/store/7169/baseline-rd-broadway-bould-2400-baseline-rd-boulder-co-803053386-us"}}, {"type": "node", "id": 573692799, "lat": 39.9831108, "lon": -105.2498788, "tags": {"amenity": "cafe", "name": "Boxcar Mesa Cafe", "outdoor_seating": "yes", "website": "https://www.boxcarcoffee.com/mesa-cafe"}}, {"type": "node", "id": 972995825, "lat": 39.9835535, "lon": -105.2502596, "tags": {"amenity": "cafe", "name": "Mickey C's Bagels", "opening_hours": "Mo-Su 05:30-15:00"}}, {"type": "node", "id": 1087811656, "lat": 40.0182543, "lon": -105.2789067, "tags": {"amenity": "cafe", "name": "Capital One Cafe", "self_service": "yes"}}, {"type": "node", "id": 1109733242, "lat": 40.0579758, "lon": -105.2819298, "tags": {"addr:city": "Boulder", "addr:housenumber": "4580", "addr:postcode": "80304", "addr:state": "CO", "addr:street": "Broadway", "amenity": "cafe", "cuisine": "coffee_shop", "internet_access": "wlan", "internet_access:fee": "no", "level": "0", "name": "Amante", "opening_hours": "Mo-Su 07:00-15:00", "outdoor_seating": "yes", "self_service": "yes", "website": "https://www.amantecoffee.com/location-amante-uptown/", "wheelchair": "yes"}}, {"type": "node", "id": 1109735617, "lat": 40.0580356, "lon": -105.2825456, "tags": {"amenity": "cafe", "cuisine": "coffee_shop", "name": "Rush II", "website": "http://www.facebook.com/pages/RUSH-BOWLS/76482657041"}}, {"type": "node", "id": 1185574416, "lat": 39.9996362, "lon": -105.2611596, "tags": {"addr:city": "Boulder", "addr:housenumber": "2610", "addr:street": "Baseline Road", "amenity": "cafe", "cuisine": "coffee_shop", "level": "0", "name": "Brewing Market Coffee", "opening_hours": "Mo-Sa 07:00-18:00; Su 09:00-14:00", "phone": "+1-303-499-1345", "website": "https://www.brewingmarketcoffee.com/our-shops"}}, {"type": "node", "id": 1204448220, "lat": 40.0180623, "lon": -105.2771027, "tags": {"addr:housenumber": "932", "addr:street": "14th Street", "amenity": "cafe", "name": "Tea and Cakes", "opening_hours": "Mo-Fr 07:30-18:00; Sa 09:00-17:00", "website": "https://www.teeandcakes.com/"}}, {"type": "node", "id": 1211528554, "lat": 40.0071578, "lon": -105.2816266}, {"type": "node", "id": 1211528567, "lat": 40.0071569, "lon": -105.2818295}, {"type": "node", "id": 1211528571, "lat": 40.0070697, "lon": -105.2816259}, {"type": "node", "id": 1211528579, "lat": 40.0070688, "lon": -105.2818288}, {"type": "node", "id": 1305385014, "lat": 40.0219958, "lon": -105.258967, "tags": {"addr:city": "Boulder", "addr:housenumber": "2800", "addr:postcode": "80301", "addr:state": "CO", "addr:street": "Pearl Street", "amenity": "cafe", "branch": "Target Boulder 64", "brand": "Starbucks", "brand:wikidata": "Q37158", "cuisine": "coffee_shop", "name": "Starbucks", "official_name": "Starbucks Coffee", "opening_hours": "Mo-Sa 05:00-21:00, Su 06:00-20:00", "operator": "Starbucks", "phone": "+1 303-449-3400", "ref": "12675", "self_service": "yes", "takeaway": "yes", "website": "https://www.starbucks.com/store-locator/store/8665/28th-pearl-boulder-2770-pearl-street-suite-b-boulder-co-803023834-us", "wheelchair": "yes"}}, {"type": "node", "id": 1309667629, "lat": 40.0358055, "lon": -105.2605187, "tags": {"addr:unit": "9", "amenity": "cafe", "cuisine": "coffee_shop", "internet_access": "wlan", "internet_access:fee": "no", "name": "Red Rock Coffeehouse", "source": "local_knowledge"}}, {"type": "node", "id": 1403540019, "lat": 40.0175786, "lon": -105.2821807, "tags": {"addr:city": "Boulder", "addr:housenumber": "1015", "addr:postcode": "80302", "addr:street": "Pearl Street", "amenity": "cafe", "cuisine": "coffee_shop", "internet_access": "wlan", "internet_access:fee": "no", "name": "Ozo Coffee", "opening_hours": "Mo-Sa 06:00-18:00; Su 07:00-18:00", "self_service": "yes", "website": "https://ozocoffee.com/"}}, {"type": "node", "id": 1437412829, "lat": 39.9976562, "lon": -105.2333464, "tags": {"addr:unit": "B101", "amenity": "cafe", "cuisine": "bagel", "internet_access": "wlan", "level": "0", "name": "Big Daddy Bagels", "opening_hours": "Mo-Fr 06:00-15:00; Sa 06:30-15:00; Su 07:00-15:00", "website": "https://bigdaddybagels.com"}}, {"type": "node", "id": 1930911750, "lat": 40.0151011, "lon": -105.2622335, "tags": {"addr:unit": "E-1A", "amenity": "cafe", "check_date:opening_hours": "2022-11-27", "cuisine": "sandwich;bagel", "name": "Woodgrain Bagels", "opening_hours": "Mo-Fr 07:00-15:00; Sa,Su 07:00-17:00", "opening_hours:url": "https://www.woodgrainbagels.com/", "phone": "+1-303-284-0396", "source:opening_hours": "website", "website": "https://www.woodgrainbagels.com/"}}, {"type": "node", "id": 2062343771, "lat": 40.0142821, "lon": -105.2283977, "tags": {"amenity": "cafe", "check_date:opening_hours": "2022-11-27", "internet_access": "wlan", "name": "Ozo Coffee Company", "opening_hours": "Mo-Sa 06:00-18:00; Su 07:00-17:00", "opening_hours:url": "https://ozocoffee.com", "self_service": "yes", "source:opening_hours": "website", "website": "https://ozocoffee.com"}}, {"type": "node", "id": 2096898867, "lat": 39.9981687, "lon": -105.234204, "tags": {"addr:city": "Boulder", "addr:housenumber": "4800", "addr:postcode": "80303", "addr:state": "CO", "addr:street": "Baseline Road", "amenity": "cafe", "branch": "Safeway Boulder 2919", "brand": "Starbucks", "brand:wikidata": "Q37158", "cuisine": "coffee_shop", "description": "inside Safeway", "level": "0", "name": "Starbucks", "official_name": "Starbucks Coffee", "phone": "+1 303-494-5373", "ref": "13079", "takeaway": "yes", "website": "https://www.starbucks.com/store-locator/store/13079/safeway-boulder-2919-4800-e-baseline-road-boulder-co-803032699-us"}}, {"type": "node", "id": 2099200311, "lat": 40.015019, "lon": -105.2526081}, {"type": "node", "id": 2099200350, "lat": 40.014908, "lon": -105.2527503}, {"type": "node", "id": 2099200368, "lat": 40.0149099, "lon": -105.2526056}, {"type": "node", "id": 2099200375, "lat": 40.015017, "lon": -105.2527529}, {"type": "node", "id": 2177939678, "lat": 40.0045611, "lon": -105.2642885, "tags": {"amenity": "cafe", "name": "Weather Tech Cafe", "opening_hours": "Mo-Fr 00:00-2:00,11:00-24:00; Sa-Su 00:00-2:00,16:00-24:00", "payment:account_cards": "yes", "payment:campus_cash": "yes", "payment:cash": "yes", "payment:meal_plan": "yes", "payment:munch_money": "yes", "takeaway": "no"}}, {"type": "node", "id": 2203467796, "lat": 40.0074579, "lon": -105.2764278, "tags": {"addr:city": "Boulder", "addr:housenumber": "1101", "addr:street": "13th Street", "amenity": "cafe", "name": "The Point Cafe", "opening_hours": "Mo-Fr 07:00-17:00, Sa-Su 08:00-16:00", "website": "http://thepointcafeboulder.com/"}}, {"type": "node", "id": 2203467803, "lat": 40.0071842, "lon": -105.2752133, "tags": {"addr:city": "Boulder", "addr:housenumber": "1352", "addr:postcode": "80302", "addr:state": "CO", "addr:street": "College Avenue", "addr:unit": "115", "amenity": "cafe", "branch": "1352 College Avenue - Boulder", "brand": "Starbucks", "brand:wikidata": "Q37158", "cuisine": "coffee_shop", "name": "Starbucks", "official_name": "Starbucks Coffee", "opening_hours": "Mo-Su 06:00-20:00", "phone": "+1 303-443-0309", "ref": "1006935", "takeaway": "yes", "website": "https://www.starbucks.com/store-locator/store/1006935/1352-college-ave-boulder-1352-college-avenue-115-boulder-co-803027442-us"}}, {"type": "node", "id": 2213712823, "lat": 40.0068842, "lon": -105.2713993, "tags": {"amenity": "cafe", "brand": "Starbucks", "brand:wikidata": "Q37158", "cuisine": "coffee_shop", "name": "Starbucks", "official_name": "Starbucks Coffee", "opening_hours": "Mo-Th 07:00 - 21:00; Fr 07:00 - 19:00; Sa 11:00 - 17:00; Su 12:00 - 17:00", "payment:account_cards": "yes", "payment:cash": "yes", "phone": "+1-303-492-1662", "takeaway": "yes", "wheelchair": "yes"}}, {"type": "node", "id": 2247077269, "lat": 40.0077095, "lon": -105.269776, "tags": {"addr:city": "Boulder", "addr:housenumber": "1125", "addr:postcode": "80309", "addr:state": "CO", "addr:street": "18th Street", "amenity": "cafe", "internet_access": "wlan", "internet_access:fee": "no", "name": "Pekoe Sip House", "opening_hours": "Mo-Su 07:00-18:00"}}, {"type": "node", "id": 2247077271, "lat": 40.0073931, "lon": -105.2632463, "tags": {"amenity": "cafe", "level": "0", "name": "Violet Peak North Engineering"}}, {"type": "node", "id": 2310482933, "lat": 40.0149585, "lon": -105.259117, "tags": {"addr:housenumber": "2721", "addr:street": "Arapahoe Avenue", "amenity": "cafe", "name": "Flatiron Coffee", "opening_hours": "Mo-Th 06:00-20:00; Fr 06:00-19:00; Sa-Su 07:00-19:00"}}, {"type": "node", "id": 2310496207, "lat": 40.0169694, "lon": -105.2568127, "tags": {"addr:unit": "1260", "amenity": "cafe", "cuisine": "coffee_shop", "level": "0", "name": "Alpine Modern", "opening_hours": "Mo-Su 07:00-17:00", "website": "https://www.alpinemodern.com/locations"}}, {"type": "node", "id": 2362000042, "lat": 39.9998141, "lon": -105.256101, "tags": {"addr:city": "Boulder", "addr:housenumber": "2850", "addr:postcode": "80303", "addr:state": "CO", "addr:street": "Baseline Road", "air_conditioning": "yes", "amenity": "cafe", "bar": "yes", "cuisine": "coffee_shop", "internet_access": "wlan", "internet_access:fee": "no", "name": "Amante Coffee", "opening_hours": "Mo-Fr 06:30-18:00; Sa-Su 08:00-15:00", "opening_hours:covid19": "Mo-Su 08:00-15:00", "outdoor_seating": "yes", "website": "https://www.amantecoffee.com/location-amante-baseline/"}}, {"type": "node", "id": 2662821333, "lat": 40.0722541, "lon": -105.2010245, "tags": {"addr:city": "Boulder", "addr:housenumber": "6558", "addr:postcode": "80301", "addr:state": "CO", "addr:street": "Lookout Road", "amenity": "cafe", "cuisine": "coffee_shop", "internet_access": "yes", "internet_access:fee": "no", "name": "Human Kind Coffee House", "opening_hours": "Mo-Sa 06:30-16:00; Su 07:00-14:00", "outdoor_seating": "yes", "smoking": "no", "source": "esri_USDOT_ColoradoOITGIS", "takeaway": "yes", "website": "http://todscafe.com/"}}, {"type": "node", "id": 2667851887, "lat": 40.0087817, "lon": -105.2702329, "tags": {"addr:city": "Boulder", "addr:housenumber": "1720", "addr:postcode": "80309", "addr:street": "Pleasant Street", "amenity": "cafe", "cuisine": "coffee_shop", "name": "The Laughing Goat", "website": "https://www.thelaughinggoat.com/"}}, {"type": "node", "id": 2681223497, "lat": 40.0088926, "lon": -105.2689238, "tags": {"amenity": "cafe", "cuisine": "coffee_shop", "name": "Folsom Street Coffee Company"}}, {"type": "node", "id": 2700650301, "lat": 40.0082509, "lon": -105.276059, "tags": {"addr:housenumber": "1142", "addr:street": "13th Street", "amenity": "cafe", "cuisine": "bubble_tea", "name": "Lollicup"}}, {"type": "node", "id": 2700664448, "lat": 40.0088858, "lon": -105.2763842, "tags": {"addr:city": "Boulder", "addr:housenumber": "1207", "addr:postcode": "80302", "addr:street": "13th Street", "amenity": "cafe", "cuisine": "smoothie", "name": "Rush bowl", "opening_hours": "Mo-Fr 08:00-19:00; Sa-Su 09:00-07:00"}}, {"type": "node", "id": 2700664449, "lat": 40.0088098, "lon": -105.27651, "tags": {"addr:city": "Boulder", "addr:housenumber": "1235", "addr:postcode": "80302", "addr:state": "CO", "addr:street": "Pennsylvania Avenue", "air_conditioning": "no", "amenity": "cafe", "bar": "yes", "cuisine": "spanish;tapas;french", "email": "cafeaion@gmail.com", "name": "Cafe Aion", "opening_hours": "Tu-Su 11:00-21:00", "outdoor_seating": "yes", "payment:cards": "yes", "payment:cash": "yes", "payment:credit_cards": "yes", "payment:debit_cards": "yes", "phone": "+1-303-993-8131", "website": "https://www.cafeaion.com"}}, {"type": "node", "id": 2701899578, "lat": 40.0160582, "lon": -105.262331, "tags": {"addr:city": "Boulder", "addr:housenumber": "2525", "addr:state": "CO", "addr:street": "Arapahoe Avenue", "amenity": "cafe", "check_date:opening_hours": "2022-11-27", "contact:phone": "+1-303-444-4858", "cuisine": "coffee_shop", "internet_access": "wlan", "internet_access:fee": "no", "name": "Brewing Market", "opening_hours": "Mo-Su 07:00-18:00", "opening_hours:url": "https://www.brewingmarketcoffee.com/locations", "source:opening_hours": "website", "website": "https://www.brewingmarketcoffee.com/locations"}}, {"type": "node", "id": 2703606305, "lat": 40.0030173, "lon": -105.2628546, "tags": {"amenity": "cafe", "cuisine": "coffee_shop", "internet_access": "yes", "name": "The Hub", "opening_hours": "Mo-Fr 07:00-21:00"}}, {"type": "node", "id": 2705164621, "lat": 40.0189856, "lon": -105.275355, "tags": {"addr:city": "Boulder", "addr:housenumber": "1521", "addr:postcode": "80302", "addr:state": "CO", "addr:street": "Pearl Street", "amenity": "cafe", "internet_access": "wlan", "internet_access:fee": "customers", "internet_access:ssid": "OZO", "level": "0", "name": "Ozo Coffee", "opening_hours": "Mo-Su 07:00-17:00; Fr,Sa 07:00-18:00", "outdoor_seating": "yes", "phone": "+1-303-449-5173", "toilets": "customers", "website": "https://www.ozocoffee.com/ozo-east-pearl/"}}, {"type": "node", "id": 3454431280, "lat": 40.0194618, "lon": -105.2730905, "tags": {"amenity": "cafe", "internet_access": "wlan", "internet_access:fee": "no", "name": "The Laughing Goat", "opening_hours": "Mo-Fr 06:00-23:00; Sa,Su 07:00-23:00", "self_service": "yes", "website": "https://www.thelaughinggoat.com/", "wheelchair": "yes"}}, {"type": "node", "id": 3868122184, "lat": 40.0175719, "lon": -105.2783146, "tags": {"amenity": "cafe", "cuisine": "coffee_shop", "internet_access": "wlan", "internet_access:ssid": "Brewing Market Coffee", "name": "Brewing Market Coffee", "opening_hours": "Mo-Sa 08:00-17:00; Su 09:00-17:00", "self_service": "yes", "website": "https://www.brewingmarketcoffee.com/"}}, {"type": "node", "id": 3906689275, "lat": 40.0139149, "lon": -105.2670439, "tags": {"amenity": "cafe", "name": "Naropa Cafe"}}, {"type": "node", "id": 4350338528, "lat": 40.0259306, "lon": -105.281479, "tags": {"addr:city": "Boulder", "addr:housenumber": "1225", "addr:postcode": "80304", "addr:state": "CO", "addr:street": "Alpine Avenue", "alt_name": "Pekoe Sip House - Alpine & Broadway", "amenity": "cafe", "internet_access": "yes", "name": "Pekoe Sip House", "opening_hours": "Mo-Sa 06:00-19:00; Su 07:00-19:00", "phone": "+1-303-444-5953", "self_service": "yes", "source": "survey", "source:opening_hours": "website", "website": "http://www.pekoesiphouse.com"}}, {"type": "node", "id": 4624124314, "lat": 40.0171416, "lon": -105.2829889, "tags": {"amenity": "cafe", "check_date": "2024-05-27", "internet_access": "wlan", "internet_access:fee": "no", "name": "Trident", "opening_hours": "Mo-Fr 06:30-23:00; Sa,Su 07:00-23:00", "self_service": "yes", "website": "https://www.tridentcafe.com/"}}, {"type": "node", "id": 4624124315, "lat": 40.0171888, "lon": -105.2827516, "tags": {"amenity": "cafe", "internet_access": "wlan", "internet_access:fee": "no", "name": "Wonder", "opening_hours": "Mo-Fr 07:00-18:00; Sa,Su 08:00-18:00", "self_service": "yes", "website": "http://wonderpress.co/"}}, {"type": "node", "id": 4681194337, "lat": 40.0173809, "lon": -105.2818289, "tags": {"amenity": "cafe", "level": "0", "name": "Alpine Modern", "opening_hours": "08:00-17:00", "website": "https://www.alpinemodern.com/"}}, {"type": "node", "id": 4687240389, "lat": 40.0170281, "lon": -105.283573, "tags": {"addr:housenumber": "908", "addr:street": "Pearl Street", "amenity": "cafe", "cuisine": "sandwich;coffee_shop", "name": "The Yellow Deli", "name:en": "The Yellow Deli", "opening_hours": "Mo-Th; Fr 00:00-15:00", "opening_hours:covid19": "Mo-Sa 09:00-22:00", "phone": "+1-303-996-4700", "website": "https://yellowdeli.com/boulder"}}, {"type": "node", "id": 4701852247, "lat": 40.0249477, "lon": -105.2432948, "tags": {"alt_name": "Parkway Restaurant", "amenity": "cafe", "name": "Parkway Cafe", "opening_hours": "Mo-Fr 07:00-15:00; Sa 07:00-14:00; Su 08:00-13:00", "website": "http://www.boulderbreakfast.com/"}}, {"type": "node", "id": 4717701275, "lat": 40.03527, "lon": -105.2544955, "tags": {"addr:housenumber": "3305", "addr:street": "30th Street", "alt_name": "Vic's Again", "amenity": "cafe", "internet_access": "yes", "internet_access:fee": "no", "level": "0", "name": "Vic's Espresso", "opening_hours": "Mo-Sa 06:00-18:00; Su 06:00-16:00", "website": "https://www.vicscoffeeshop.com/"}}, {"type": "node", "id": 4717701293, "lat": 40.0168884, "lon": -105.2855285, "tags": {"addr:city": "Boulder", "addr:housenumber": "767", "addr:postcode": "80302", "addr:street": "Pearl Street", "amenity": "cafe", "name": "Spruce Confections", "website": "https://www.spruceconfections.com/"}}, {"type": "node", "id": 4717838028, "lat": 40.0166491, "lon": -105.2814436, "tags": {"amenity": "cafe", "name": "Amante", "opening_hours": "Mo-Su 07:00-19:00", "website": "https://www.amantecoffee.com/location-amante-walnut/"}}, {"type": "node", "id": 4725333626, "lat": 40.0596887, "lon": -105.2818988, "tags": {"addr:city": "Boulder", "addr:housenumber": "4684", "addr:postcode": "80304", "addr:street": "Broadway", "amenity": "cafe", "internet_access": "wlan", "name": "Spruce Confections", "opening_hours": "Mo-Su 06:30-17:00", "outdoor_seating": "yes", "self_service": "yes", "takeaway": "yes", "website": "https://www.spruceconfections.com/"}}, {"type": "node", "id": 4725367149, "lat": 40.0185447, "lon": -105.2800489, "tags": {"addr:city": "Boulder", "addr:housenumber": "2052", "addr:postcode": "80302", "addr:street": "Broadway", "amenity": "cafe", "name": "The Unseen Bean Cafe", "opening_hours": "Mo-Fr 06:30-18:00; Sa 08:30-18:00", "website": "https://www.theunseenbean.com/"}}, {"type": "node", "id": 5075476322, "lat": 40.0197522, "lon": -105.2517273, "tags": {"addr:housenumber": "1886", "addr:street": "30th Street", "addr:unit": "B", "amenity": "cafe", "name": "January coffee"}}, {"type": "node", "id": 5097129577, "lat": 40.0268576, "lon": -105.253323, "tags": {"addr:unit": "100", "amenity": "cafe", "name": "Verb Coffee Roasters", "opening_hours": "07:00-16:00", "outdoor_seating": "yes", "source": "survey", "source:opening_hours": "website", "website": "https://www.verbcoffeeroasters.com/"}}, {"type": "node", "id": 5180687403, "lat": 40.0161668, "lon": -105.2610198, "tags": {"addr:unit": "E-50", "amenity": "cafe", "name": "Le Peep"}}, {"type": "node", "id": 5182325486, "lat": 40.0171862, "lon": -105.2799511, "tags": {"addr:housenumber": "1911", "addr:street": "Broadway", "amenity": "cafe", "cuisine": "cupcake", "name": "Boulder Baked", "opening_hours": "Tu-Su 15:00-24:00", "website": "https://www.boulderbaked.com/"}}, {"type": "node", "id": 5186541677, "lat": 40.0749394, "lon": -105.202168}, {"type": "node", "id": 5187494394, "lat": 40.0748631, "lon": -105.2021687}, {"type": "node", "id": 5187494395, "lat": 40.0748625, "lon": -105.2020632}, {"type": "node", "id": 5187494396, "lat": 40.0748465, "lon": -105.2020633}, {"type": "node", "id": 5187494397, "lat": 40.0748461, "lon": -105.2019958}, {"type": "node", "id": 5187494398, "lat": 40.0749385, "lon": -105.201995}, {"type": "node", "id": 5741678381, "lat": 40.0252277, "lon": -105.2811621, "tags": {"addr:city": "Boulder", "addr:housenumber": "2680", "addr:postcode": "80304", "addr:street": "Broadway", "amenity": "cafe", "internet_access": "wlan", "internet_access:fee": "no", "name": "Beleza Coffee", "opening_hours": "Mo-Sa 06:00-18:00; Su 07:00-17:00", "website": "https://www.belezacoffeebar.com/"}}, {"type": "node", "id": 6089311274, "lat": 40.0280827, "lon": -105.2259705, "tags": {"amenity": "cafe", "check_date:opening_hours": "2022-11-27", "internet_access": "no", "internet_access:fee": "no", "level": "0", "name": "Baby Goat", "opening_hours": "Mo-Fr 06:30-17:30; Sa 08:00-15:00; Su 08:00-13:00", "opening_hours:url": "https://www.thelaughinggoat.com/baby-goat/", "self_service": "yes", "source:opening_hours": "website", "website": "https://www.thelaughinggoat.com/baby-goat/"}}, {"type": "node", "id": 6225910634, "lat": 40.0204973, "lon": -105.2183037, "tags": {"amenity": "cafe", "name": "Ozo Coffee"}}, {"type": "node", "id": 6397531243, "lat": 40.0346383, "lon": -105.2598971, "tags": {"addr:city": "Boulder", "addr:housenumber": "3325", "addr:postcode": "80301", "addr:state": "CO", "addr:street": "28th Street", "amenity": "cafe", "branch": "Safeway Boulder 1615", "brand": "Starbucks", "brand:wikidata": "Q37158", "cuisine": "coffee_shop", "description": "inside Safeway", "level": "0", "name": "Starbucks", "official_name": "Starbucks Coffee", "phone": "+1 303-938-1271", "ref": "16316", "takeaway": "yes", "website": "https://www.starbucks.com/store-locator/store/16316/safeway-boulder-1615-3325-28th-st-boulder-co-803011440-us"}}, {"type": "node", "id": 6397687781, "lat": 40.0299778, "lon": -105.2579847, "tags": {"addr:city": "Boulder", "addr:housenumber": "3040", "addr:postcode": "80301", "addr:state": "CO", "addr:street": "28th Street", "amenity": "cafe", "cuisine": "coffee_shop", "name": "Gabee Coffee", "opening_hours": "Mo-Fr 07:00-16:30; Sa 08:00-15:00; Su 10:00-15:00", "outdoor_seating": "yes", "phone": "+1-720-389-5522", "website": "https://www.gabeecoffee.com/"}}, {"type": "node", "id": 6418820387, "lat": 40.0732442, "lon": -105.200859, "tags": {"addr:housenumber": "6560", "addr:street": "Odell Place", "addr:unit": "C", "amenity": "cafe", "cuisine": "coffee_shop", "name": "Ampersand Coffee Roasters", "opening_hours": "Mo-Sa 07:00-17:00; Su 08:00-15:00", "website": "https://www.ampersand-coffee.com"}}, {"type": "node", "id": 6456034210, "lat": 40.0144495, "lon": -105.2786298, "tags": {"addr:city": "Boulder", "addr:housenumber": "1724", "addr:postcode": "80302", "addr:state": "CO", "addr:street": "Broadway", "amenity": "cafe", "cuisine": "coffee_shop;beer", "name": "Peregrine", "outdoor_seating": "yes"}}, {"type": "node", "id": 7953689030, "lat": 40.0477906, "lon": -105.280857, "tags": {"addr:unit": "104", "amenity": "cafe", "name": "Ruzo Coffee", "opening_hours": "Mo-Su 07:00-16:00", "website": "https://www.ruzocoffee.com"}}, {"type": "node", "id": 8436693760, "lat": 40.0197824, "lon": -105.2714568, "tags": {"addr:housenumber": "1825", "addr:postcode": "80302", "addr:street": "Pearl Street", "addr:unit": "B", "amenity": "cafe", "contact:facebook": "boxcarcoffee", "contact:instagram": "boxcarcoffeeroasters", "cuisine": "coffee_shop", "level": "0", "name": "Boxcar Coffee Roasters", "opening_hours": "Mo-Sa 07:00-16:00; Su 08:00-16:00", "phone": "+1-720-456-7962", "website": "https://www.boxcarcoffeeroasters.com/"}}, {"type": "node", "id": 9239139781, "lat": 40.0170578, "lon": -105.284755, "tags": {"addr:city": "Boulder", "addr:housenumber": "805", "addr:postcode": "80302", "addr:state": "CO", "addr:street": "Pearl Street", "amenity": "cafe", "cuisine": "chocolate", "internet_access": "wlan", "name": "Piece Love and Chocolate", "opening_hours": "Su-Tu 09:00-18:00, We-Sa 09:00-21:00", "outdoor_seating": "yes", "phone": "+1-303-449-4804", "website": "https://pieceloveandchocolate.com/"}}, {"type": "node", "id": 9295236768, "lat": 40.0099859, "lon": -105.2435705, "tags": {"amenity": "cafe", "cuisine": "coffee_shop", "level": "0", "name": "Violet Peak Aerospace Cafe", "opening_hours": "Mo-Fr 07:30-15:00", "takeaway": "yes", "website": "https://www.violetpeak.com/", "wheelchair": "yes"}}, {"type": "node", "id": 10173983407, "lat": 39.983455, "lon": -105.2516804, "tags": {"addr:city": "Boulder", "addr:housenumber": "3600", "addr:postcode": "80305", "addr:state": "CO", "addr:street": "Table Mesa Drive", "amenity": "cafe", "branch": "King Soopers Boulder 33", "brand": "Starbucks", "brand:wikidata": "Q37158", "cuisine": "coffee_shop", "name": "Starbucks", "official_name": "Starbucks Coffee", "phone": "+1 303-439-2610", "ref": "10775", "takeaway": "yes", "website": "https://www.starbucks.com/store-locator/store/10775/king-soopers-boulder-33-3600-table-mesa-drive-boulder-co-803055800-us"}}, {"type": "node", "id": 11023511772, "lat": 40.0244843, "lon": -105.2541933, "tags": {"addr:housenumber": "2355", "addr:street": "30th Street", "amenity": "cafe", "check_date": "2023-07-03", "cuisine": "coffee_shop;beer", "name": "The Tune Up", "opening_hours": "Mo-Fr 07:00-21:00; Sa 07:00-20:00; Su 07:00-18:00", "payment:mastercard": "yes", "payment:visa": "yes", "phone": "+1-303-440-1002", "website": "https://tuneupboulder.com/", "wheelchair": "yes"}}, {"type": "node", "id": 11042715353, "lat": 40.0237427, "lon": -105.2381365, "tags": {"addr:city": "Boulder", "addr:housenumber": "2516", "addr:postcode": "80301", "addr:state": "CO", "addr:street": "49th Street", "addr:unit": "2", "amenity": "cafe", "cuisine": "coffee_shop", "name": "The Coffee Ride", "opening_hours": "Mo-Sa 07:00-13:00", "outdoor_seating": "yes", "website": "https://thecoffeeride.com"}}, {"type": "node", "id": 12252271284, "lat": 40.0197739, "lon": -105.2715741, "tags": {"addr:city": "Boulder", "addr:housenumber": "1815", "addr:postcode": "80302", "addr:street": "Pearl Street", "amenity": "cafe", "brand": "Rapha", "brand:en": "Rapha", "brand:ja": "\u30e9\u30d5\u30a1", "brand:wikidata": "Q7293931", "cuisine": "coffee_shop", "level": "0", "name": "Rapha", "name:en": "Rapha", "name:ja": "\u30e9\u30d5\u30a1", "opening_hours": "Mo-Su 08:00-16:00", "website": "https://www.rapha.cc/us/en_US/clubhouses/boulder"}}, {"type": "node", "id": 12542720786, "lat": 39.9840161, "lon": -105.2499139, "tags": {"addr:city": "Boulder", "addr:housenumber": "633", "addr:postcode": "80305", "addr:state": "CO", "addr:street": "South Broadway", "addr:unit": "A", "amenity": "cafe", "name": "Neptune Mountaineering Cafe", "opening_hours": "Mo-Fr 07:00-16:00, Sa-Su 08:00-16:00", "outdoor_seating": "yes", "phone": "+1-303-499-8866", "website": "https://www.neptunemountaineering.com/pages/cafe"}}, {"type": "node", "id": 12590295837, "lat": 40.0262871, "lon": -105.250835, "tags": {"addr:city": "Boulder", "addr:housenumber": "2490", "addr:postcode": "80301", "addr:state": "CO", "addr:street": "Junction Place", "addr:unit": "103", "amenity": "cafe", "cuisine": "coffee_shop", "internet_access": "wlan", "internet_access:fee": "customers", "name": "Logan's Espresso Cafe", "opening_hours": "Mo-Th 07:00-14:00; Fr-Mo 08:00-14:00", "website": "https://www.logansespressocafe.com/"}}, {"type": "node", "id": 12606313821, "lat": 40.0066875, "lon": -105.2635076, "tags": {"amenity": "cafe", "name": "Violet Peak South Engineering"}}, {"type": "node", "id": 12635011263, "lat": 40.0196121, "lon": -105.2752152, "tags": {"amenity": "cafe", "cuisine": "coffee_shop", "name": "S\u00fcti & Co", "opening_hours": "Mo-Fr 08:00-16:00; Sa,Su 09:00-17:00", "outdoor_seating": "yes", "website": "https://www.sutiandco.com"}}, {"type": "way", "id": 105107031, "nodes": [1211528567, 1211528579, 1211528571, 1211528554, 1211528567], "tags": {"addr:city": "Boulder", "addr:housenumber": "904", "addr:postcode": "80302", "addr:state": "CO", "addr:street": "College Avenue", "amenity": "cafe", "building": "yes", "cuisine": "regional", "internet_access": "wlan", "name": "Alpine Modern Cafe", "opening_hours": "Mo-Su 07:00-16:00", "source": "esri_USDOT_ColoradoOITGIS", "website": "https://www.alpinemodern.com"}}, {"type": "way", "id": 199931296, "nodes": [2099200375, 2099200350, 2099200368, 2099200311, 2099200375], "tags": {"addr:city": "Boulder", "addr:housenumber": "3033", "addr:postcode": "80301", "addr:state": "CO", "addr:street": "Arapahoe Avenue", "amenity": "cafe", "branch": "30th & Arapahoe", "brand": "Starbucks", "brand:wikidata": "Q37158", "building": "retail", "cuisine": "coffee_shop", "name": "Starbucks", "official_name": "Starbucks Coffee", "phone": "+1 303-440-5090", "source": "esri_USDOT_ColoradoOITGIS", "takeaway": "yes", "website": "https://www.starbucks.com/store-locator/store/15211/30th-arapahoe-3033-arapahoe-boulder-co-803031016-us"}}, {"type": "way", "id": 535063767, "nodes": [5186541677, 5187494398, 5187494397, 5187494396, 5187494395, 5187494394, 5186541677], "tags": {"addr:housenumber": "5530", "addr:state": "CO", "addr:street": "Spine Road", "amenity": "cafe", "building": "yes", "name": "Aperitivo"}}]}